{"type": "FeatureCollection", "features": [ {"type": "Feature", "properties": {"norad_id": 57401, "name": "TIANMU-1 09", "group": "weather", "lat": 18.991618670987837, "lon": 45.22620086831777, "alt_km": 477.66910455761445, "timestamp": "2025-12-24T20:42:20.662184+00:00", "meta": {"OBJECT_NAME": "TIANMU-1 09", "OBJECT_ID": "2023-101C", "EPOCH": "2025-12-24T08:03:02.854944", "MEAN_MOTION": 15.28248902, "ECCENTRICITY": 0.00062617, "INCLINATION": 97.2801, "RA_OF_ASC_NODE": 47.2326, "ARG_OF_PERICENTER": 52.1246, "MEAN_ANOMALY": 308.0559, "EPHEMERIS_TYPE": 0, "CLASSIFICATION_TYPE": "U", "NORAD_CAT_ID": 57401, "ELEMENT_SET_NO": 999, "REV_AT_EPOCH": 13492, "BSTAR": 0.0002893841, "MEAN_MOTION_DOT": 7.897e-05, "MEAN_MOTION_DDOT": 0}, "tle": {"line1": "1 57401U 23101C   25358.33544971  .00007897  00000+0  28938-3 0  9996", "line2": "2 57401  97.2801  47.2326 0006261  52.1246 308.0559 15.28248902134925"}}, "geometry": {"type": "Point", "coordinates": [45.22620086831777, 18.991618670987837]}}, {"type": "Feature", "properties": {"norad_id": 57402, "name": "TIANMU-1 10", "group": "weather", "lat": -10.949734508537775, "lon": -132.8081480273961, "alt_km": 489.8559193394003, "timestamp": "2025-12-24T20:42:20.662194+00:00", "meta": {"OBJECT_NAME": "TIANMU-1 10", "OBJECT_ID": "2023-101D", "EPOCH": "2025-12-24T07:18:06.852672", "MEAN_MOTION": 15.28239796, "ECCENTRICITY": 0.0007997, "INCLINATION": 97.2882, "RA_OF_ASC_NODE": 48.0643, "ARG_OF_PERICENTER": 49.5905, "MEAN_ANOMALY": 310.6032, "EPHEMERIS_TYPE": 0, "CLASSIFICATION_TYPE": "U", "NORAD_CAT_ID": 57402, "ELEMENT_SET_NO": 999, "REV_AT_EPOCH": 13491, "BSTAR": 0.00029633065, "MEAN_MOTION_DOT": 8.089e-05, "MEAN_MOTION_DDOT": 0}, "tle": {"line1": "1 57402U 23101D   25358.30424598  .00008089  00000+0  29633-3 0  9993", "line2": "2 57402  97.2882  48.0643 0007997  49.5905 310.6032 15.28239796134910"}}, "geometry": {"type": "Point", "coordinates": [-132.8081480273961, -10.949734508537775]}}, {"type": "Feature", "properties": {"norad_id": 57490, "name": "FENGYUN 3F", "group": "weather", "lat": 52.5941438297574, "lon": 55.40000744697223, "alt_km": 820.4669283334579, "timestamp": "2025-12-24T20:42:20.662204+00:00", "meta": {"OBJECT_NAME": "FENGYUN 3F", "OBJECT_ID": "2023-111A", "EPOCH": "2025-12-24T06:55:30.096192", "MEAN_MOTION": 14.19896507, "ECCENTRICITY": 8.203e-05, "INCLINATION": 98.7068, "RA_OF_ASC_NODE": 66.3949, "ARG_OF_PERICENTER": 116.7427, "MEAN_ANOMALY": 243.3833, "EPHEMERIS_TYPE": 0, "CLASSIFICATION_TYPE": "U", "NORAD_CAT_ID": 57490, "ELEMENT_SET_NO": 999, "REV_AT_EPOCH": 12404, "BSTAR": 5.983933e-05, "MEAN_MOTION_DOT": 8.3e-07, "MEAN_MOTION_DDOT": 0}, "tle": {"line1": "1 57490U 23111A   25358.28854278  .00000083  00000+0  59839-4 0  9998", "line2": "2 57490  98.7068  66.3949 0000820 116.7427 243.3833 14.19896507124047"}}, "geometry": {"type": "Point", "coordinates": [55.40000744697223, 52.5941438297574]}}, {"type": "Feature", "properties": {"norad_id": 58584, "name": "ARKTIKA-M 2", "group": "weather", "lat": 45.401934329435065, "lon": -155.62650987055227, "alt_km": 25633.8689213468, "timestamp": "2025-12-24T20:42:20.662218+00:00", "meta": {"OBJECT_NAME": "ARKTIKA-M 2", "OBJECT_ID": "2023-198A", "EPOCH": "2025-12-23T19:04:51.780000", "MEAN_MOTION": 2.00602438, "ECCENTRICITY": 0.68658211, "INCLINATION": 63.2256, "RA_OF_ASC_NODE": 173.6885, "ARG_OF_PERICENTER": 268.0594, "MEAN_ANOMALY": 18.8414, "EPHEMERIS_TYPE": 0, "CLASSIFICATION_TYPE": "U", "NORAD_CAT_ID": 58584, "ELEMENT_SET_NO": 999, "REV_AT_EPOCH": 1480, "BSTAR": 0, "MEAN_MOTION_DOT": 2.16e-06, "MEAN_MOTION_DDOT": 0}, "tle": {"line1": "1 58584U 23198A   25357.79504375  .00000216  00000+0  00000+0 0  9992", "line2": "2 58584  63.2256 173.6885 6865821 268.0594  18.8414  2.00602438 14808"}}, "geometry": {"type": "Point", "coordinates": [-155.62650987055227, 45.401934329435065]}}, {"type": "Feature", "properties": {"norad_id": 58645, "name": "TIANMU-1 11", "group": "weather", "lat": -37.59470863361075, "lon": -167.43840952708328, "alt_km": 494.1249093238839, "timestamp": "2025-12-24T20:42:20.662230+00:00", "meta": {"OBJECT_NAME": "TIANMU-1 11", "OBJECT_ID": "2023-205A", "EPOCH": "2025-12-24T07:09:07.466112", "MEAN_MOTION": 15.24734055, "ECCENTRICITY": 0.00075408, "INCLINATION": 97.3595, "RA_OF_ASC_NODE": 17.718, "ARG_OF_PERICENTER": 260.8843, "MEAN_ANOMALY": 99.1542, "EPHEMERIS_TYPE": 0, "CLASSIFICATION_TYPE": "U", "NORAD_CAT_ID": 58645, "ELEMENT_SET_NO": 999, "REV_AT_EPOCH": 11085, "BSTAR": 0.00026038047, "MEAN_MOTION_DOT": 6.38e-05, "MEAN_MOTION_DDOT": 0}, "tle": {"line1": "1 58645U 23205A   25358.29800308  .00006380  00000+0  26038-3 0  9991", "line2": "2 58645  97.3595  17.7180 0007540 260.8843  99.1542 15.24734055110850"}}, "geometry": {"type": "Point", "coordinates": [-167.43840952708328, -37.59470863361075]}}, {"type": "Feature", "properties": {"norad_id": 58646, "name": "TIANMU-1 12", "group": "weather", "lat": 64.04555435555089, "lon": 2.6779025358505337, "alt_km": 489.72634251504223, "timestamp": "2025-12-24T20:42:20.662240+00:00", "meta": {"OBJECT_NAME": "TIANMU-1 12", "OBJECT_ID": "2023-205B", "EPOCH": "2025-12-24T07:49:11.407008", "MEAN_MOTION": 15.24621584, "ECCENTRICITY": 0.00059469, "INCLINATION": 97.3584, "RA_OF_ASC_NODE": 17.5469, "ARG_OF_PERICENTER": 238.57, "MEAN_ANOMALY": 121.4957, "EPHEMERIS_TYPE": 0, "CLASSIFICATION_TYPE": "U", "NORAD_CAT_ID": 58646, "ELEMENT_SET_NO": 999, "REV_AT_EPOCH": 11084, "BSTAR": 0.00027817535, "MEAN_MOTION_DOT": 6.796e-05, "MEAN_MOTION_DDOT": 0}, "tle": {"line1": "1 58646U 23205B   25358.32582647  .00006796  00000+0  27818-3 0  9997", "line2": "2 58646  97.3584  17.5469 0005946 238.5700 121.4957 15.24621584110849"}}, "geometry": {"type": "Point", "coordinates": [2.6779025358505337, 64.04555435555089]}}, {"type": "Feature", "properties": {"norad_id": 58647, "name": "TIANMU-1 13", "group": "weather", "lat": -62.154978085413774, "lon": -175.88552471318215, "alt_km": 495.0101787884905, "timestamp": "2025-12-24T20:42:20.662250+00:00", "meta": {"OBJECT_NAME": "TIANMU-1 13", "OBJECT_ID": "2023-205C", "EPOCH": "2025-12-24T07:02:31.159680", "MEAN_MOTION": 15.24663836, "ECCENTRICITY": 0.00065839, "INCLINATION": 97.3611, "RA_OF_ASC_NODE": 17.7209, "ARG_OF_PERICENTER": 216.4798, "MEAN_ANOMALY": 143.5992, "EPHEMERIS_TYPE": 0, "CLASSIFICATION_TYPE": "U", "NORAD_CAT_ID": 58647, "ELEMENT_SET_NO": 999, "REV_AT_EPOCH": 11083, "BSTAR": 0.00027531842, "MEAN_MOTION_DOT": 6.735e-05, "MEAN_MOTION_DDOT": 0}, "tle": {"line1": "1 58647U 23205C   25358.29341620  .00006735  00000+0  27532-3 0  9994", "line2": "2 58647  97.3611  17.7209 0006583 216.4798 143.5992 15.24663836110834"}}, "geometry": {"type": "Point", "coordinates": [-175.88552471318215, -62.154978085413774]}}, {"type": "Feature", "properties": {"norad_id": 58648, "name": "TIANMU-1 14", "group": "weather", "lat": -26.51867907599627, "lon": 21.313280561037335, "alt_km": 499.5451846069336, "timestamp": "2025-12-24T20:42:20.662260+00:00", "meta": {"OBJECT_NAME": "TIANMU-1 14", "OBJECT_ID": "2023-205D", "EPOCH": "2025-12-24T08:13:18.466176", "MEAN_MOTION": 15.24647467, "ECCENTRICITY": 0.00072866, "INCLINATION": 97.3544, "RA_OF_ASC_NODE": 17.1074, "ARG_OF_PERICENTER": 222.5778, "MEAN_ANOMALY": 137.4896, "EPHEMERIS_TYPE": 0, "CLASSIFICATION_TYPE": "U", "NORAD_CAT_ID": 58648, "ELEMENT_SET_NO": 999, "REV_AT_EPOCH": 11084, "BSTAR": 0.00028544226, "MEAN_MOTION_DOT": 6.983e-05, "MEAN_MOTION_DDOT": 0}, "tle": {"line1": "1 58648U 23205D   25358.34257484  .00006983  00000+0  28544-3 0  9994", "line2": "2 58648  97.3544  17.1074 0007286 222.5778 137.4896 15.24647467110849"}}, "geometry": {"type": "Point", "coordinates": [21.313280561037335, -26.51867907599627]}}, {"type": "Feature", "properties": {"norad_id": 58660, "name": "TIANMU-1 19", "group": "weather", "lat": 15.130973422881686, "lon": 107.85271559369731, "alt_km": 485.7518178530563, "timestamp": "2025-12-24T20:42:20.662270+00:00", "meta": {"OBJECT_NAME": "TIANMU-1 19", "OBJECT_ID": "2023-208A", "EPOCH": "2025-12-24T06:29:39.884064", "MEAN_MOTION": 15.28053956, "ECCENTRICITY": 0.00047362, "INCLINATION": 97.4391, "RA_OF_ASC_NODE": 109.2864, "ARG_OF_PERICENTER": 203.8256, "MEAN_ANOMALY": 156.2765, "EPHEMERIS_TYPE": 0, "CLASSIFICATION_TYPE": "U", "NORAD_CAT_ID": 58660, "ELEMENT_SET_NO": 999, "REV_AT_EPOCH": 11058, "BSTAR": 0.00039618442, "MEAN_MOTION_DOT": 0.00010773, "MEAN_MOTION_DDOT": 0}, "tle": {"line1": "1 58660U 23208A   25358.27060051  .00010773  00000+0  39618-3 0  9991", "line2": "2 58660  97.4391 109.2864 0004736 203.8256 156.2765 15.28053956110587"}}, "geometry": {"type": "Point", "coordinates": [107.85271559369731, 15.130973422881686]}}, {"type": "Feature", "properties": {"norad_id": 58661, "name": "TIANMU-1 20", "group": "weather", "lat": 38.12446639189681, "lon": -63.782528152364314, "alt_km": 474.0585620077709, "timestamp": "2025-12-24T20:42:20.662280+00:00", "meta": {"OBJECT_NAME": "TIANMU-1 20", "OBJECT_ID": "2023-208B", "EPOCH": "2025-12-24T05:57:18.888192", "MEAN_MOTION": 15.29243894, "ECCENTRICITY": 0.00067778, "INCLINATION": 97.4328, "RA_OF_ASC_NODE": 109.7228, "ARG_OF_PERICENTER": 218.1762, "MEAN_ANOMALY": 141.8998, "EPHEMERIS_TYPE": 0, "CLASSIFICATION_TYPE": "U", "NORAD_CAT_ID": 58661, "ELEMENT_SET_NO": 999, "REV_AT_EPOCH": 11065, "BSTAR": 0.00036399809, "MEAN_MOTION_DOT": 0.00010262, "MEAN_MOTION_DDOT": 0}, "tle": {"line1": "1 58661U 23208B   25358.24813528  .00010262  00000+0  36400-3 0  9993", "line2": "2 58661  97.4328 109.7228 0006777 218.1762 141.8998 15.29243894110654"}}, "geometry": {"type": "Point", "coordinates": [-63.782528152364314, 38.12446639189681]}}]}